[Satellite]
VERSION=1.1
NAME=STARLINK-1142
NICKNAME=STARLINK-1142
TLE1=1 45093U 20006BB  20058.91667824  .00519883  00000-0  34944-2 0  9997
TLE2=2 45093  52.9969  89.6777 0001642  45.4811 255.3659 15.73125876  1936
STATUS=0
